ONEWEB-0130             
1 47276U 20100U   26201.12432711 -.00000398  00000+0 -11427-2 0  9999
2 47276  87.8980 344.1054 0001960  98.6482 261.4869 13.12443106268964
ONEWEB-0131             
1 47277U 20100V   26201.12094172 -.00000486  00000+0 -13868-2 0  9994
2 47277  87.8966 344.1206 0001886 102.3654 257.7686 13.12442487269001
ONEWEB-0132             
1 47278U 20100W   26200.92103260  .00000353  00000+0  94628-3 0  9996
2 47278  87.8967 344.1632 0001875  99.4532 260.6809 13.12442910268870
ONEWEB-0133             
1 47279U 20100X   26200.93782407  .00000271  00000+0  71702-3 0  9991
2 47279  87.8985 344.1390 0001789  99.0525 261.0806 13.12443013269030
ONEWEB-0134             
1 47280U 20100Y   26200.90747682  .00000020  00000+0  20543-4 0  9996
2 47280  87.8981 344.1426 0002091 101.3843 258.7520 13.12443703269004
ONEWEB-0135             
1 47281U 20100Z   26200.95490375 -.00000254  00000+0 -74280-3 0  9993
2 47281  87.8967 344.1516 0002028 104.4173 255.7181 13.12442703269031
ONEWEB-0136             
1 47282U 20100AA  26201.12601681 -.00000373  00000+0 -10714-2 0  9991
2 47282  87.8975 344.1019 0002137 101.9802 258.1567 13.12443664268986
ONEWEB-0137             
1 47283U 20100AB  26200.93119205  .00000379  00000+0  10181-2 0  9998
2 47283  87.8985 344.1516 0001806  94.6550 265.4785 13.12442589268865
ONEWEB-0138             
1 47284U 20100AC  26200.90917284  .00000071  00000+0  16222-3 0  9991
2 47284  87.8977 344.1609 0002077  99.1283 261.0081 13.12443590268947
ONEWEB-0139             
1 47285U 20100AD  26201.10244864 -.00000022  00000+0 -97873-4 0  9992
2 47285  87.8978 344.1080 0001899  96.4651 263.6694 13.12441973269045
ONEWEB-0140             
1 47286U 20100AE  26200.90408659 -.00000110  00000+0 -34151-3 0  9991
2 47286  87.8979 344.1392 0001800 102.3780 257.7551 13.12443813268988
ONEWEB-0141             
1 47287U 20100AF  26201.10215668 -.00000108  00000+0 -33554-3 0  9994
2 47287  87.8977 344.1047 0001782  87.9080 272.2253 13.12443142268991
ONEWEB-0142             
1 47288U 20100AG  26201.31929150  .00000300  00000+0  79734-3 0  9998
2 47288  87.8971 344.0811 0002099  87.3450 272.7919 13.12443635269016
ONEWEB-0143             
1 47289U 20100AH  26200.94813090 -.00000028  00000+0 -11376-3 0  9999
2 47289  87.8972 344.1543 0001835  94.8568 265.2770 13.12442338268943
ONEWEB-0144             
1 47290U 20100AJ  26200.91934212  .00000316  00000+0  84416-3 0  9991
2 47290  87.8982 344.1365 0002249  96.1355 264.0030 13.12442840268862
ONEWEB-0145             
1 47291U 20100AK  26200.89052829 -.00000444  00000+0 -12683-2 0  9994
2 47291  87.8970 344.1663 0001952  96.1521 263.9830 13.12443377269050
ONEWEB-0146             
1 47292U 20100AL  26200.88714032 -.00000380  00000+0 -10923-2 0  9999
2 47292  87.8979 344.1609 0001569 104.3899 255.7404 13.12443345268964
ONEWEB-0147             
1 47293U 20100AM  26200.92950196  .00000374  00000+0  10028-2 0  9995
2 47293  87.8977 344.1350 0001931 101.6902 258.4444 13.12443055268865
ONEWEB-0115             
1 48042U 21025A   26201.31300064  .00000753  00000+0  20271-2 0  9994
2 48042  87.8984 313.6327 0001843 102.9817 257.1518 13.13465256257945
ONEWEB-0152             
1 48043U 21025B   26201.25031736 -.00000066  00000+0 -21698-3 0  9999
2 48043  87.8993 313.6437 0001893 103.2290 256.9051 13.13473650257892
ONEWEB-0153             
1 48044U 21025C   26200.84744053  .00000293  00000+0  76814-3 0  9997
2 48044  87.8981 313.7241 0002014  98.4074 261.7284 13.13469236257836
ONEWEB-0154             
1 48045U 21025D   26201.30112007  .00000408  00000+0  10828-2 0  9998
2 48045  87.8988 313.6336 0002014 105.4218 254.7134 13.13470504257855
ONEWEB-0116             
1 48046U 21025E   26201.26387088 -.00000248  00000+0 -71317-3 0  9992
2 48046  87.8989 313.6382 0001854 103.1090 257.0246 13.13470341257996
ONEWEB-0150             
1 48047U 21025F   26201.24018109  .00000199  00000+0  51027-3 0  9995
2 48047  87.8993 313.6401 0001844  94.8398 265.2942 13.13469651257884
ONEWEB-0107             
1 48048U 21025G   26201.24186442  .00000140  00000+0  34955-3 0  9999
2 48048  87.8993 313.6356 0002084  95.9704 264.1662 13.13472167257865
ONEWEB-0101             
1 48049U 21025H   26200.82373549  .00000024  00000+0  29550-4 0  9996
2 48049  87.8977 313.7313 0002105 101.4871 258.6494 13.13471508257784
ONEWEB-0113             
1 48050U 21025J   26200.83761594  .00000247  00000+0  63666-3 0  9992
2 48050  87.8983 313.6357 0001869  96.1325 264.0018 13.13890835257893
ONEWEB-0112             
1 48051U 21025K   26201.24695013  .00000017  00000+0  11807-4 0  9997
2 48051  87.8991 313.6330 0002199 100.3816 259.7561 13.13469588257930
ONEWEB-0156             
1 48052U 21025L   26201.25539472 -.00000265  00000+0 -76024-3 0  9993
2 48052  87.8989 313.6411 0001991  96.3495 263.7861 13.13471420257918
ONEWEB-0161             
1 48053U 21025M   26201.07765997  .00000289  00000+0  75727-3 0  9990
2 48053  87.8989 313.6774 0002067  94.9605 265.1761 13.13472864257821
