OBJECT_NAME,OBJECT_ID,EPOCH,MEAN_MOTION,ECCENTRICITY,INCLINATION,RA_OF_ASC_NODE,ARG_OF_PERICENTER,MEAN_ANOMALY,EPHEMERIS_TYPE,CLASSIFICATION_TYPE,NORAD_CAT_ID,ELEMENT_SET_NO,REV_AT_EPOCH,BSTAR,MEAN_MOTION_DOT,MEAN_MOTION_DDOT
ONEWEB-0130,2020-100U,2026-07-20T02:59:01.862304,13.12443106,.00019607,87.8980,344.1054,98.6482,261.4869,0,U,47276,999,26896,-.11427319E-2,-.398E-5,0
ONEWEB-0131,2020-100V,2026-07-20T02:54:09.364608,13.12442487,.00018863,87.8966,344.1206,102.3654,257.7686,0,U,47277,999,26900,-.13868122E-2,-.486E-5,0
ONEWEB-0132,2020-100W,2026-07-19T22:06:17.216640,13.12442910,.00018758,87.8967,344.1632,99.4532,260.6809,0,U,47278,999,26887,.94627653E-3,.353E-5,0
ONEWEB-0133,2020-100X,2026-07-19T22:30:27.999648,13.12443013,.00017896,87.8985,344.1390,99.0525,261.0806,0,U,47279,999,26903,.71702452E-3,.271E-5,0
ONEWEB-0134,2020-100Y,2026-07-19T21:46:45.997248,13.12443703,.00020911,87.8981,344.1426,101.3843,258.7520,0,U,47280,999,26900,.20543392E-4,.2E-6,0
ONEWEB-0135,2020-100Z,2026-07-19T22:55:03.684000,13.12442703,.00020289,87.8967,344.1516,104.4173,255.7181,0,U,47281,999,26903,-.74279951E-3,-.254E-5,0
ONEWEB-0136,2020-100AA,2026-07-20T03:01:27.852384,13.12443664,.00021379,87.8975,344.1019,101.9802,258.1567,0,U,47282,999,26898,-.10713624E-2,-.373E-5,0
ONEWEB-0137,2020-100AB,2026-07-19T22:20:54.993120,13.12442589,.00018061,87.8985,344.1516,94.6550,265.4785,0,U,47283,999,26886,.10181036E-2,.379E-5,0
ONEWEB-0138,2020-100AC,2026-07-19T21:49:12.533376,13.12443590,.00020778,87.8977,344.1609,99.1283,261.0081,0,U,47284,999,26894,.16221713E-3,.71E-6,0
ONEWEB-0139,2020-100AD,2026-07-20T02:27:31.562496,13.12441973,.00018999,87.8978,344.1080,96.4651,263.6694,0,U,47285,999,26904,-.97873274E-4,-.22E-6,0
ONEWEB-0140,2020-100AE,2026-07-19T21:41:53.081376,13.12443813,.00018009,87.8979,344.1392,102.3780,257.7551,0,U,47286,999,26898,-.34151036E-3,-.11E-5,0
ONEWEB-0141,2020-100AF,2026-07-20T02:27:06.337152,13.12443142,.00017823,87.8977,344.1047,87.9080,272.2253,0,U,47287,999,26899,-.33553691E-3,-.108E-5,0
ONEWEB-0142,2020-100AG,2026-07-20T07:39:46.785600,13.12443635,.00020991,87.8971,344.0811,87.3450,272.7919,0,U,47288,999,26901,.79734356E-3,.3E-5,0
ONEWEB-0143,2020-100AH,2026-07-19T22:45:18.509760,13.12442338,.00018357,87.8972,344.1543,94.8568,265.2770,0,U,47289,999,26894,-.11376222E-3,-.28E-6,0
ONEWEB-0144,2020-100AJ,2026-07-19T22:03:51.159168,13.12442840,.00022499,87.8982,344.1365,96.1355,264.0030,0,U,47290,999,26886,.84416293E-3,.316E-5,0
ONEWEB-0145,2020-100AK,2026-07-19T21:22:21.644256,13.12443377,.00019524,87.8970,344.1663,96.1521,263.9830,0,U,47291,999,26905,-.1268272E-2,-.444E-5,0
ONEWEB-0146,2020-100AL,2026-07-19T21:17:28.923648,13.12443345,.00015691,87.8979,344.1609,104.3899,255.7404,0,U,47292,999,26896,-.10922621E-2,-.38E-5,0
ONEWEB-0147,2020-100AM,2026-07-19T22:18:28.969344,13.12443055,.00019317,87.8977,344.1350,101.6902,258.4444,0,U,47293,999,26886,.10028384E-2,.374E-5,0
ONEWEB-0115,2021-025A,2026-07-20T07:30:43.255296,13.13465256,.00018432,87.8984,313.6327,102.9817,257.1518,0,U,48042,999,25794,.20271175E-2,.753E-5,0
ONEWEB-0152,2021-025B,2026-07-20T06:00:27.419904,13.13473650,.00018938,87.8993,313.6437,103.2290,256.9051,0,U,48043,999,25789,-.2169788E-3,-.66E-6,0
ONEWEB-0153,2021-025C,2026-07-19T20:20:18.861792,13.13469236,.0002014,87.8981,313.7241,98.4074,261.7284,0,U,48044,999,25783,.76813864E-3,.293E-5,0
ONEWEB-0154,2021-025D,2026-07-20T07:13:36.774048,13.13470504,.00020145,87.8988,313.6336,105.4218,254.7134,0,U,48045,999,25785,.10827725E-2,.408E-5,0
ONEWEB-0116,2021-025E,2026-07-20T06:19:58.444032,13.13470341,.00018544,87.8989,313.6382,103.1090,257.0246,0,U,48046,999,25799,-.71317026E-3,-.248E-5,0
ONEWEB-0150,2021-025F,2026-07-20T05:45:51.646176,13.13469651,.00018449,87.8993,313.6401,94.8398,265.2942,0,U,48047,999,25788,.51026645E-3,.199E-5,0
ONEWEB-0107,2021-025G,2026-07-20T05:48:17.085888,13.13472167,.00020844,87.8993,313.6356,95.9704,264.1662,0,U,48048,999,25786,.34955392E-3,.14E-5,0
ONEWEB-0101,2021-025H,2026-07-19T19:46:10.746336,13.13471508,.00021057,87.8977,313.7313,101.4871,258.6494,0,U,48049,999,25778,.29550439E-4,.24E-6,0
ONEWEB-0113,2021-025J,2026-07-19T20:06:10.017216,13.13890835,.00018699,87.8983,313.6357,96.1325,264.0018,0,U,48050,999,25789,.63666442E-3,.247E-5,0
ONEWEB-0112,2021-025K,2026-07-20T05:55:36.491232,13.13469588,.00021999,87.8991,313.6330,100.3816,259.7561,0,U,48051,999,25793,.11806695E-4,.17E-6,0
ONEWEB-0156,2021-025L,2026-07-20T06:07:46.103808,13.13471420,.00019913,87.8989,313.6411,96.3495,263.7861,0,U,48052,999,25791,-.7602356E-3,-.265E-5,0
ONEWEB-0161,2021-025M,2026-07-20T01:51:49.821408,13.13472864,.00020677,87.8989,313.6774,94.9605,265.1761,0,U,48053,999,25782,.75727177E-3,.289E-5,0
